{"type": "FeatureCollection", "features": [ {"type": "Feature", "properties": {"norad_id": 35670, "name": "COSMOS 2251 DEB", "group": "cosmos-2251-debris", "lat": -65.03794840037516, "lon": 45.303215828519136, "alt_km": 606.2002971021448, "timestamp": "2025-12-03T06:58:43.638551+00:00", "meta": {"OBJECT_NAME": "COSMOS 2251 DEB", "OBJECT_ID": "1993-036APM", "EPOCH": "2025-12-02T13:36:37.006272", "MEAN_MOTION": 14.93466193, "ECCENTRICITY": 0.00371253, "INCLINATION": 73.8946, "RA_OF_ASC_NODE": 85.1379, "ARG_OF_PERICENTER": 49.569, "MEAN_ANOMALY": 310.8721, "EPHEMERIS_TYPE": 0, "CLASSIFICATION_TYPE": "U", "NORAD_CAT_ID": 35670, "ELEMENT_SET_NO": 999, "REV_AT_EPOCH": 87575, "BSTAR": 0.001872791, "MEAN_MOTION_DOT": 0.00019987, "MEAN_MOTION_DDOT": 0}, "tle": {"line1": "1 35670U 93036APM 25336.56709498  .00019987  00000+0  18728-2 0  9990", "line2": "2 35670  73.8946  85.1379 0037125  49.5690 310.8721 14.93466193875754"}}, "geometry": {"type": "Point", "coordinates": [45.303215828519136, -65.03794840037516]}}, {"type": "Feature", "properties": {"norad_id": 35671, "name": "COSMOS 2251 DEB", "group": "cosmos-2251-debris", "lat": 63.87037035770904, "lon": -118.72079045567396, "alt_km": 752.5997615967663, "timestamp": "2025-12-03T06:58:43.638562+00:00", "meta": {"OBJECT_NAME": "COSMOS 2251 DEB", "OBJECT_ID": "1993-036APN", "EPOCH": "2025-12-01T08:11:18.472992", "MEAN_MOTION": 14.48314652, "ECCENTRICITY": 0.0041561, "INCLINATION": 74.0169, "RA_OF_ASC_NODE": 100.6857, "ARG_OF_PERICENTER": 276.6997, "MEAN_ANOMALY": 113.402, "EPHEMERIS_TYPE": 0, "CLASSIFICATION_TYPE": "U", "NORAD_CAT_ID": 35671, "ELEMENT_SET_NO": 999, "REV_AT_EPOCH": 86598, "BSTAR": 0.00028068473, "MEAN_MOTION_DOT": 1.032e-05, "MEAN_MOTION_DDOT": 0}, "tle": {"line1": "1 35671U 93036APN 25335.34118603  .00001032  00000+0  28068-3 0  9999", "line2": "2 35671  74.0169 100.6857 0041561 276.6997 113.4020 14.48314652865986"}}, "geometry": {"type": "Point", "coordinates": [-118.72079045567396, 63.87037035770904]}}, {"type": "Feature", "properties": {"norad_id": 35674, "name": "COSMOS 2251 DEB", "group": "cosmos-2251-debris", "lat": 26.353423238080907, "lon": 146.21052858034096, "alt_km": 755.767206219848, "timestamp": "2025-12-03T06:58:43.638572+00:00", "meta": {"OBJECT_NAME": "COSMOS 2251 DEB", "OBJECT_ID": "1993-036APR", "EPOCH": "2025-12-02T10:28:10.862976", "MEAN_MOTION": 14.53935413, "ECCENTRICITY": 0.00959603, "INCLINATION": 74.0597, "RA_OF_ASC_NODE": 335.9623, "ARG_OF_PERICENTER": 23.2163, "MEAN_ANOMALY": 337.329, "EPHEMERIS_TYPE": 0, "CLASSIFICATION_TYPE": "U", "NORAD_CAT_ID": 35674, "ELEMENT_SET_NO": 999, "REV_AT_EPOCH": 85961, "BSTAR": 0.0019444081, "MEAN_MOTION_DOT": 8.683e-05, "MEAN_MOTION_DDOT": 0}, "tle": {"line1": "1 35674U 93036APR 25336.43623684  .00008683  00000+0  19444-2 0  9999", "line2": "2 35674  74.0597 335.9623 0095960  23.2163 337.3290 14.53935413859610"}}, "geometry": {"type": "Point", "coordinates": [146.21052858034096, 26.353423238080907]}}, {"type": "Feature", "properties": {"norad_id": 35703, "name": "COSMOS 2251 DEB", "group": "cosmos-2251-debris", "lat": -35.087391511920025, "lon": 50.07941120091468, "alt_km": 648.9068443796259, "timestamp": "2025-12-03T06:58:43.638581+00:00", "meta": {"OBJECT_NAME": "COSMOS 2251 DEB", "OBJECT_ID": "1993-036APY", "EPOCH": "2025-11-29T12:54:34.216128", "MEAN_MOTION": 14.90033275, "ECCENTRICITY": 0.00657991, "INCLINATION": 74.0417, "RA_OF_ASC_NODE": 69.1804, "ARG_OF_PERICENTER": 143.4261, "MEAN_ANOMALY": 217.1441, "EPHEMERIS_TYPE": 0, "CLASSIFICATION_TYPE": "U", "NORAD_CAT_ID": 35703, "ELEMENT_SET_NO": 999, "REV_AT_EPOCH": 66419, "BSTAR": 0.00097213112, "MEAN_MOTION_DOT": 9.751e-05, "MEAN_MOTION_DDOT": 0}, "tle": {"line1": "1 35703U 93036APY 25333.53789602  .00009751  00000+0  97213-3 0  9991", "line2": "2 35703  74.0417  69.1804 0065799 143.4261 217.1441 14.90033275664198"}}, "geometry": {"type": "Point", "coordinates": [50.07941120091468, -35.087391511920025]}}, {"type": "Feature", "properties": {"norad_id": 35705, "name": "COSMOS 2251 DEB", "group": "cosmos-2251-debris", "lat": 6.452936559056558, "lon": 155.75065122876646, "alt_km": 663.076559123886, "timestamp": "2025-12-03T06:58:43.638591+00:00", "meta": {"OBJECT_NAME": "COSMOS 2251 DEB", "OBJECT_ID": "1993-036AQA", "EPOCH": "2025-11-30T18:34:55.460928", "MEAN_MOTION": 14.71601566, "ECCENTRICITY": 0.00343203, "INCLINATION": 74.2748, "RA_OF_ASC_NODE": 158.7429, "ARG_OF_PERICENTER": 116.054, "MEAN_ANOMALY": 244.4173, "EPHEMERIS_TYPE": 0, "CLASSIFICATION_TYPE": "U", "NORAD_CAT_ID": 35705, "ELEMENT_SET_NO": 999, "REV_AT_EPOCH": 85750, "BSTAR": 0.0026714631, "MEAN_MOTION_DOT": 0.00016783, "MEAN_MOTION_DDOT": 0}, "tle": {"line1": "1 35705U 93036AQA 25334.77425302  .00016783  00000+0  26715-2 0  9995", "line2": "2 35705  74.2748 158.7429 0034320 116.0540 244.4173 14.71601566857506"}}, "geometry": {"type": "Point", "coordinates": [155.75065122876646, 6.452936559056558]}}, {"type": "Feature", "properties": {"norad_id": 35706, "name": "COSMOS 2251 DEB", "group": "cosmos-2251-debris", "lat": -73.39076619786972, "lon": 2.7250724389598506, "alt_km": 1222.954267440512, "timestamp": "2025-12-03T06:58:43.638602+00:00", "meta": {"OBJECT_NAME": "COSMOS 2251 DEB", "OBJECT_ID": "1993-036AQB", "EPOCH": "2025-12-01T13:14:17.826144", "MEAN_MOTION": 13.65877076, "ECCENTRICITY": 0.03419141, "INCLINATION": 73.888, "RA_OF_ASC_NODE": 81.2903, "ARG_OF_PERICENTER": 133.1878, "MEAN_ANOMALY": 229.8353, "EPHEMERIS_TYPE": 0, "CLASSIFICATION_TYPE": "U", "NORAD_CAT_ID": 35706, "ELEMENT_SET_NO": 999, "REV_AT_EPOCH": 61909, "BSTAR": 0.0013112957, "MEAN_MOTION_DOT": 1.587e-05, "MEAN_MOTION_DDOT": 0}, "tle": {"line1": "1 35706U 93036AQB 25335.55159521  .00001587  00000+0  13113-2 0  9994", "line2": "2 35706  73.8880  81.2903 0341914 133.1878 229.8353 13.65877076619090"}}, "geometry": {"type": "Point", "coordinates": [2.7250724389598506, -73.39076619786972]}}, {"type": "Feature", "properties": {"norad_id": 35711, "name": "COSMOS 2251 DEB", "group": "cosmos-2251-debris", "lat": -70.43729879671622, "lon": 112.19767535086095, "alt_km": 680.5711736549065, "timestamp": "2025-12-03T06:58:43.638612+00:00", "meta": {"OBJECT_NAME": "COSMOS 2251 DEB", "OBJECT_ID": "1993-036AQG", "EPOCH": "2025-12-02T00:16:13.414368", "MEAN_MOTION": 14.63746545, "ECCENTRICITY": 0.0085061, "INCLINATION": 74.0469, "RA_OF_ASC_NODE": 241.0434, "ARG_OF_PERICENTER": 344.6598, "MEAN_ANOMALY": 15.1992, "EPHEMERIS_TYPE": 0, "CLASSIFICATION_TYPE": "U", "NORAD_CAT_ID": 35711, "ELEMENT_SET_NO": 999, "REV_AT_EPOCH": 87614, "BSTAR": 0.00037639463, "MEAN_MOTION_DOT": 2.034e-05, "MEAN_MOTION_DDOT": 0}, "tle": {"line1": "1 35711U 93036AQG 25336.01126637  .00002034  00000+0  37639-3 0  9992", "line2": "2 35711  74.0469 241.0434 0085061 344.6598  15.1992 14.63746545876144"}}, "geometry": {"type": "Point", "coordinates": [112.19767535086095, -70.43729879671622]}}, {"type": "Feature", "properties": {"norad_id": 35716, "name": "COSMOS 2251 DEB", "group": "cosmos-2251-debris", "lat": 67.82110208795619, "lon": -12.475866283749419, "alt_km": 645.2682726403445, "timestamp": "2025-12-03T06:58:43.638622+00:00", "meta": {"OBJECT_NAME": "COSMOS 2251 DEB", "OBJECT_ID": "1993-036AQM", "EPOCH": "2025-12-01T00:31:48.079200", "MEAN_MOTION": 14.60063594, "ECCENTRICITY": 0.00883976, "INCLINATION": 73.9936, "RA_OF_ASC_NODE": 216.6246, "ARG_OF_PERICENTER": 60.6815, "MEAN_ANOMALY": 4.1449, "EPHEMERIS_TYPE": 0, "CLASSIFICATION_TYPE": "U", "NORAD_CAT_ID": 35716, "ELEMENT_SET_NO": 999, "REV_AT_EPOCH": 87456, "BSTAR": 0.00013723681, "MEAN_MOTION_DOT": 6.64e-06, "MEAN_MOTION_DDOT": 0}, "tle": {"line1": "1 35716U 93036AQM 25335.02208425  .00000664  00000+0  13724-3 0  9999", "line2": "2 35716  73.9936 216.6246 0088397  60.6815   4.1449 14.60063594874569"}}, "geometry": {"type": "Point", "coordinates": [-12.475866283749419, 67.82110208795619]}}, {"type": "Feature", "properties": {"norad_id": 35717, "name": "COSMOS 2251 DEB", "group": "cosmos-2251-debris", "lat": -64.2025990621268, "lon": 90.7565807869686, "alt_km": 818.4596277524734, "timestamp": "2025-12-03T06:58:43.638632+00:00", "meta": {"OBJECT_NAME": "COSMOS 2251 DEB", "OBJECT_ID": "1993-036AQN", "EPOCH": "2025-11-20T02:19:42.985056", "MEAN_MOTION": 14.38259242, "ECCENTRICITY": 0.00762455, "INCLINATION": 74.1612, "RA_OF_ASC_NODE": 258.9085, "ARG_OF_PERICENTER": 125.8129, "MEAN_ANOMALY": 235.0143, "EPHEMERIS_TYPE": 0, "CLASSIFICATION_TYPE": "U", "NORAD_CAT_ID": 35717, "ELEMENT_SET_NO": 999, "REV_AT_EPOCH": 73774, "BSTAR": 0.0010708512, "MEAN_MOTION_DOT": 3.344e-05, "MEAN_MOTION_DDOT": 0}, "tle": {"line1": "1 35717U 93036AQN 25324.09702529  .00003344  00000+0  10709-2 0  9996", "line2": "2 35717  74.1612 258.9085 0076245 125.8129 235.0143 14.38259242737741"}}, "geometry": {"type": "Point", "coordinates": [90.7565807869686, -64.2025990621268]}}, {"type": "Feature", "properties": {"norad_id": 35718, "name": "COSMOS 2251 DEB", "group": "cosmos-2251-debris", "lat": 47.643902502817525, "lon": 166.55912936622767, "alt_km": 669.0074624832978, "timestamp": "2025-12-03T06:58:43.638643+00:00", "meta": {"OBJECT_NAME": "COSMOS 2251 DEB", "OBJECT_ID": "1993-036AQP", "EPOCH": "2025-11-28T18:49:36.496416", "MEAN_MOTION": 14.68279459, "ECCENTRICITY": 0.00123436, "INCLINATION": 74.0315, "RA_OF_ASC_NODE": 156.9668, "ARG_OF_PERICENTER": 206.7375, "MEAN_ANOMALY": 153.316, "EPHEMERIS_TYPE": 0, "CLASSIFICATION_TYPE": "U", "NORAD_CAT_ID": 35718, "ELEMENT_SET_NO": 999, "REV_AT_EPOCH": 65635, "BSTAR": 0.0013999458, "MEAN_MOTION_DOT": 8.062e-05, "MEAN_MOTION_DDOT": 0}, "tle": {"line1": "1 35718U 93036AQP 25332.78445019  .00008062  00000+0  13999-2 0  9996", "line2": "2 35718  74.0315 156.9668 0012343 206.7375 153.3160 14.68279459656359"}}, "geometry": {"type": "Point", "coordinates": [166.55912936622767, 47.643902502817525]}}]}